OBJECT_NAME,OBJECT_ID,EPOCH,MEAN_MOTION,ECCENTRICITY,INCLINATION,RA_OF_ASC_NODE,ARG_OF_PERICENTER,MEAN_ANOMALY,EPHEMERIS_TYPE,CLASSIFICATION_TYPE,NORAD_CAT_ID,ELEMENT_SET_NO,REV_AT_EPOCH,BSTAR,MEAN_MOTION_DOT,MEAN_MOTION_DDOT
STARLINK-36834,2026-037AD,2026-06-28T14:04:17.565888,15.27578417,.00009529,43.0025,284.2010,272.3640,87.7102,0,U,67959,999,2030,.15588448E-3,.403E-4,0
STARLINK-36841,2026-037AE,2026-06-28T14:09:50.635296,15.27598718,.00007297,42.9990,284.2258,281.4337,78.6433,0,U,67960,999,2030,.64116287E-3,.17433E-3,0
STARLINK-36912,2026-038A,2026-06-28T14:41:10.180896,15.33443451,.00023647,97.2835,189.0799,74.3040,285.8463,0,U,67961,999,2023,.31905174E-3,.10239E-3,0
STARLINK-36881,2026-038B,2026-06-28T13:03:17.320608,15.33442418,.00021724,97.2829,189.0221,85.1356,275.0135,0,U,67962,999,2022,.35789632E-3,.11496E-3,0
STARLINK-36357,2026-038C,2026-06-28T14:29:25.456704,15.33429484,.00018619,97.2841,189.0929,89.5102,270.6354,0,U,67963,999,2023,-.71709544E-4,-.2388E-4,0
STARLINK-36349,2026-038D,2026-06-28T14:33:20.154528,15.33446549,.00012511,97.2832,189.0869,103.8429,256.2953,0,U,67964,999,2023,.31235919E-3,.10023E-3,0
STARLINK-36806,2026-038E,2026-06-28T14:25:30.218016,15.33456187,.00011445,97.2813,189.0947,110.9490,249.1876,0,U,67965,999,2023,.56376574E-3,.18176E-3,0
STARLINK-36820,2026-038F,2026-06-28T14:21:35.212608,15.33456693,.00008555,97.2814,189.0989,100.2903,259.8436,0,U,67966,999,2023,.54103901E-3,.17438E-3,0
STARLINK-36819,2026-038G,2026-06-28T14:17:40.713504,15.33440520,.00014803,97.2829,189.1011,95.1392,265.0020,0,U,67967,999,2023,.39564584E-3,.12718E-3,0
STARLINK-36812,2026-038H,2026-06-28T14:13:45.143040,15.33430972,.00011528,97.2830,189.1086,116.7907,243.3454,0,U,67968,999,2023,.39612294E-3,.12729E-3,0
STARLINK-36709,2026-038J,2026-06-28T14:05:55.602240,15.33499329,.00012102,97.2831,189.1157,105.2617,254.8759,0,U,67969,999,2023,.78379405E-3,.25357E-3,0
STARLINK-36319,2026-038K,2026-06-28T14:09:50.511744,15.33453199,.00007971,97.2820,189.1103,96.8881,263.2453,0,U,67970,999,2023,.48977654E-3,.15774E-3,0
STARLINK-36710,2026-038L,2026-06-28T14:02:01.349376,15.33446871,.00014923,97.2832,189.1188,102.3298,257.8112,0,U,67971,999,2023,.38525288E-3,.12384E-3,0
STARLINK-36894,2026-038M,2026-06-28T13:58:06.139200,15.33448953,.00024632,97.2822,189.1217,111.4834,248.6672,0,U,67972,999,2023,.63115635E-3,.2036E-3,0
STARLINK-36900,2026-038N,2026-06-28T13:50:16.081728,15.33446361,.00016165,97.2826,189.1245,108.2831,251.8588,0,U,67973,999,2023,.53698925E-3,.17302E-3,0
STARLINK-36901,2026-038P,2026-06-28T13:54:10.922976,15.33449573,.00012598,97.2827,189.1244,96.7852,263.3534,0,U,67974,999,2023,.56258182E-3,.18134E-3,0
STARLINK-36883,2026-038Q,2026-06-28T13:34:36.553440,15.33443736,.00016561,97.2832,189.1445,109.7483,250.3939,0,U,67975,999,2023,.31637591E-3,.10152E-3,0
STARLINK-36880,2026-038R,2026-06-28T13:46:21.207648,15.33447498,.00019958,97.2830,189.1284,116.8786,243.2661,0,U,67976,999,2023,.52372749E-3,.16873E-3,0
STARLINK-36904,2026-038S,2026-06-28T13:38:31.448256,15.33442854,.00018055,97.2829,189.1404,91.7126,268.4323,0,U,67977,999,2023,.4806945E-3,.15475E-3,0
STARLINK-36364,2026-038T,2026-06-28T13:26:46.422528,15.33441393,.00012129,97.2828,189.1523,92.9102,267.2280,0,U,67978,999,2023,.12906557E-3,.4093E-4,0
STARLINK-36359,2026-038U,2026-06-28T13:42:26.526240,15.33447473,.00022434,97.2821,189.1367,104.0537,256.0955,0,U,67979,999,2023,.4601942E-3,.14813E-3,0
STARLINK-36882,2026-038V,2026-06-28T13:30:41.693184,15.33422716,.00018533,97.2828,189.1469,94.1281,266.0173,0,U,67980,999,2023,.54455681E-3,.17534E-3,0
STARLINK-36874,2026-038W,2026-06-28T13:22:52.323456,15.33460713,.00013694,97.2829,189.1566,102.9382,257.2014,0,U,67981,999,2023,.49792194E-3,.16042E-3,0
STARLINK-36879,2026-038X,2026-06-28T13:18:57.059712,15.33443313,.00018958,97.2828,189.1573,88.5386,271.6074,0,U,67982,999,2023,.38260959E-3,.12297E-3,0
STARLINK-36867,2026-038Y,2026-06-28T13:11:06.628992,15.33439016,.00015761,97.2828,189.1651,91.7989,268.3434,0,U,67983,999,2023,.40439579E-4,.123E-4,0
STARLINK-36266,2026-038Z,2026-06-28T13:15:01.579968,15.33455330,.00013463,97.2822,189.1635,136.7715,223.3633,0,U,67984,999,2023,.23129868E-3,.7402E-4,0
STARLINK-36802,2026-038AA,2026-06-28T14:39:22.569696,15.33448650,.00015706,97.2823,189.9995,88.6237,271.5186,0,U,67985,999,2029,.35398158E-3,.11371E-3,0
STARLINK-36535,2026-039A,2026-06-28T08:29:54.004992,15.27592655,.00015189,43.0032,144.3456,264.7921,95.2757,0,U,67986,999,1862,.60659879E-3,.16474E-3,0
STARLINK-36744,2026-039B,2026-06-28T14:40:57.725472,15.27577460,.00014111,43.0020,142.8420,266.7002,93.3689,0,U,67987,999,1866,.45704921E-3,.12335E-3,0
STARLINK-36734,2026-039C,2026-06-28T14:35:25.556352,15.27597408,.0001822,43.0010,142.8348,267.7913,92.2730,0,U,67988,999,1866,.52015417E-3,.14086E-3,0
