STARLINK-36834          
1 67959U 26037AD  26179.58631442  .00004030  00000+0  15588-3 0  9998
2 67959  43.0025 284.2010 0000952 272.3640  87.7102 15.27578417 20306
STARLINK-36841          
1 67960U 26037AE  26179.59016939  .00017433  00000+0  64116-3 0  9991
2 67960  42.9990 284.2258 0000729 281.4337  78.6433 15.27598718 20309
STARLINK-36912          
1 67961U 26038A   26179.61192339  .00010239  00000+0  31905-3 0  9992
2 67961  97.2835 189.0799 0002364  74.3040 285.8463 15.33443451 20237
STARLINK-36881          
1 67962U 26038B   26179.54395047  .00011496  00000+0  35790-3 0  9998
2 67962  97.2829 189.0221 0002172  85.1356 275.0135 15.33442418 20226
STARLINK-36357          
1 67963U 26038C   26179.60376686 -.00002388  00000+0 -71710-4 0  9999
2 67963  97.2841 189.0929 0001861  89.5102 270.6354 15.33429484 20230
STARLINK-36349          
1 67964U 26038D   26179.60648327  .00010023  00000+0  31236-3 0  9995
2 67964  97.2832 189.0869 0001251 103.8429 256.2953 15.33446549 20235
STARLINK-36806          
1 67965U 26038E   26179.60104419  .00018176  00000+0  56377-3 0  9995
2 67965  97.2813 189.0947 0001144 110.9490 249.1876 15.33456187 20234
STARLINK-36820          
1 67966U 26038F   26179.59832422  .00017438  00000+0  54104-3 0  9992
2 67966  97.2814 189.0989 0000855 100.2903 259.8436 15.33456693 20233
STARLINK-36819          
1 67967U 26038G   26179.59561011  .00012718  00000+0  39565-3 0  9996
2 67967  97.2829 189.1011 0001480  95.1392 265.0020 15.33440520 20236
STARLINK-36812          
1 67968U 26038H   26179.59288360  .00012729  00000+0  39612-3 0  9995
2 67968  97.2830 189.1086 0001152 116.7907 243.3454 15.33430972 20239
STARLINK-36709          
1 67969U 26038J   26179.58744910  .00025357  00000+0  78379-3 0  9997
2 67969  97.2831 189.1157 0001210 105.2617 254.8759 15.33499329 20232
STARLINK-36319          
1 67970U 26038K   26179.59016796  .00015774  00000+0  48978-3 0  9998
2 67970  97.2820 189.1103 0000797  96.8881 263.2453 15.33453199 20230
STARLINK-36710          
1 67971U 26038L   26179.58473784  .00012384  00000+0  38525-3 0  9993
2 67971  97.2832 189.1188 0001492 102.3298 257.8112 15.33446871 20235
STARLINK-36894          
1 67972U 26038M   26179.58201550  .00020360  00000+0  63116-3 0  9991
2 67972  97.2822 189.1217 0002463 111.4834 248.6672 15.33448953 20236
STARLINK-36900          
1 67973U 26038N   26179.57657502  .00017302  00000+0  53699-3 0  9990
2 67973  97.2826 189.1245 0001616 108.2831 251.8588 15.33446361 20235
STARLINK-36901          
1 67974U 26038P   26179.57929309  .00018134  00000+0  56258-3 0  9996
2 67974  97.2827 189.1244 0001259  96.7852 263.3534 15.33449573 20230
STARLINK-36883          
1 67975U 26038Q   26179.56570085  .00010152  00000+0  31638-3 0  9996
2 67975  97.2832 189.1445 0001656 109.7483 250.3939 15.33443736 20236
STARLINK-36880          
1 67976U 26038R   26179.57385657  .00016873  00000+0  52373-3 0  9992
2 67976  97.2830 189.1284 0001995 116.8786 243.2661 15.33447498 20239
STARLINK-36904          
1 67977U 26038S   26179.56841954  .00015475  00000+0  48069-3 0  9993
2 67977  97.2829 189.1404 0001805  91.7126 268.4323 15.33442854 20236
STARLINK-36364          
1 67978U 26038T   26179.56025952  .00004093  00000+0  12907-3 0  9992
2 67978  97.2828 189.1523 0001212  92.9102 267.2280 15.33441393 20233
STARLINK-36359          
1 67979U 26038U   26179.57114035  .00014813  00000+0  46019-3 0  9997
2 67979  97.2821 189.1367 0002243 104.0537 256.0955 15.33447473 20235
STARLINK-36882          
1 67980U 26038V   26179.56298256  .00017534  00000+0  54456-3 0  9993
2 67980  97.2828 189.1469 0001853  94.1281 266.0173 15.33422716 20234
STARLINK-36874          
1 67981U 26038W   26179.55755004  .00016042  00000+0  49792-3 0  9992
2 67981  97.2829 189.1566 0001369 102.9382 257.2014 15.33460713 20231
STARLINK-36879          
1 67982U 26038X   26179.55482708  .00012297  00000+0  38261-3 0  9998
2 67982  97.2828 189.1573 0001895  88.5386 271.6074 15.33443313 20239
STARLINK-36867          
1 67983U 26038Y   26179.54938228  .00001230  00000+0  40440-4 0  9999
2 67983  97.2828 189.1651 0001576  91.7989 268.3434 15.33439016 20236
STARLINK-36266          
1 67984U 26038Z   26179.55210162  .00007402  00000+0  23130-3 0  9994
2 67984  97.2822 189.1635 0001346 136.7715 223.3633 15.33455330 20234
STARLINK-36802          
1 67985U 26038AA  26179.61067789  .00011371  00000+0  35398-3 0  9996
2 67985  97.2823 189.9995 0001570  88.6237 271.5186 15.33448650 20297
STARLINK-36535          
1 67986U 26039A   26179.35409728  .00016474  00000+0  60660-3 0  9991
2 67986  43.0032 144.3456 0001518 264.7921  95.2757 15.27592655 18622
STARLINK-36744          
1 67987U 26039B   26179.61177923  .00012335  00000+0  45705-3 0  9995
2 67987  43.0020 142.8420 0001411 266.7002  93.3689 15.27577460 18662
STARLINK-36734          
1 67988U 26039C   26179.60793468  .00014086  00000+0  52015-3 0  9990
2 67988  43.0010 142.8348 0001822 267.7913  92.2730 15.27597408 18668
